*******************************************************************************
 Revised: Aug 08, 2019             Mimas / (Saturn)                         601
                        http://ssd.jpl.nasa.gov/?sat_phys_par
                         http://ssd.jpl.nasa.gov/?sat_elem

 SATELLITE PHYSICAL PROPERTIES:
  Mean Radius (km)        = 198.8   +- 1.5   Density (g/cm^3)  = 1.152 +- 0.027
  Mass (10^19 kg)         =   3.75           Geometric Albedo  = 0.6 
  GM (km^3/s^2)           =   2.504          V(1,0)            = +3.3

 SATELLITE ORBITAL DATA (mean elements referred to local Laplace plane):
  Semi-major axis, a (km) = 185.54(10^3)    Orbital period     = 0.9424218 d
  Eccentricity, e         = 0.0196          Rotational period  = Synchronous
  Inclination, i  (deg)   = 1.572
*******************************************************************************
 

 

*******************************************************************************
Ephemeris / WWW_USER Thu Dec 26 16:01:51 2019 Pasadena, USA      / Horizons    
*******************************************************************************
Target body name: Mimas (601)                     {source: sat425l_merged_DE438}
Center body name: Sun (10)                        {source: sat425l_merged_DE438}
Center-site name: BODY CENTER
*******************************************************************************
Start time      : A.D. 2019-Dec-26 00:00:00.0000 TDB
Stop  time      : A.D. 2020-Jan-25 00:00:00.0000 TDB
Step-size       : 1440 minutes
*******************************************************************************
Center geodetic : 0.00000000,0.00000000,0.0000000 {E-lon(deg),Lat(deg),Alt(km)}
Center cylindric: 0.00000000,0.00000000,0.0000000 {E-lon(deg),Dxy(km),Dz(km)}
Center radii    : 696000.0 x 696000.0 x 696000.0 k{Equator, meridian, pole}    
Keplerian GM    : 1.3271244004444287E+11 km^3/s^2
Output units    : KM-S, deg                                                    
Output type     : GEOMETRIC osculating elements
Output format   : 10
Reference frame : ICRF/J2000.0                                                 
Coordinate systm: Ecliptic and Mean Equinox of Reference Epoch                 
*******************************************************************************
            JDTDB,            Calendar Date (TDB),                     EC,                     QR,                     IN,                     OM,                      W,                     Tp,                      N,                     MA,                     TA,                      A,                     AD,                     PR,
**************************************************************************************************************************************************************************************************************************************************************************************************************************************************
$$SOE
2458843.500000000, A.D. 2019-Dec-26 00:00:00.0000,  1.106163096953748E+00,  3.652574922941836E+08,  5.064241226444085E+01,  1.121138413991506E+02,  2.960682515595132E+02,  8.952520340488413E+07,  1.034284743457020E-07, -9.259455203655813E+00,  2.438485112313367E+02, -3.440531623275056E+09,  9.999999000000000E+99,  9.999999000000000E+99,
2458844.500000000, A.D. 2019-Dec-27 00:00:00.0000,  9.733418620611637E-01,  7.001755267722863E+07,  9.732913149553866E+01,  1.120818830245567E+02,  3.388161945266723E+02,  8.904877614713174E+07,  1.550646401077103E-07,  3.461916835747130E+02,  2.011209407193078E+02,  2.626498251223522E+09,  5.182978949769815E+09,  2.321612456263003E+09,
2458845.500000000, A.D. 2019-Dec-28 00:00:00.0000,  9.063537395630007E-01,  1.091724928661900E+08,  1.780934644464498E+02,  1.102902245983165E+02,  3.400395633029929E+02,  1.129923523121644E+08,  5.243777646279941E-07,  3.007493228744885E+02,  1.981316439710680E+02,  1.165796609034228E+09,  2.222420725202267E+09,  6.865279656840378E+08,
2458846.500000000, A.D. 2019-Dec-29 00:00:00.0000,  6.938524313867757E-01,  2.850390082246916E+08,  1.519483168147751E+02,  2.922579664947665E+02,  1.679878784606770E+02,  1.812936776004007E+08,  7.347138455630420E-07,  2.268010249539432E+02,  1.921393393257108E+02,  9.310510271757193E+08,  1.577063046126747E+09,  4.899866828072593E+08,
2458847.500000000, A.D. 2019-Dec-30 00:00:00.0000,  6.091825181654046E-01,  3.877510224130420E+08,  1.297974518996676E+02,  2.922227326845725E+02,  1.965105289792097E+02, -1.923961185260983E+08,  6.678977727402859E-07,  1.285009390474572E+02,  1.635666271568246E+02,  9.921537301577227E+08,  1.596556437902403E+09,  5.390046421669790E+08,
2458848.500000000, A.D. 2019-Dec-31 00:00:00.0000,  7.489815194839516E-01,  3.691206120985483E+08,  1.013987304919025E+02,  2.922132460227336E+02,  2.205173786658906E+02, -1.315386448122025E+08,  3.701557908076624E-07,  4.868979109222900E+01,  1.395428839782351E+02,  1.470491779488520E+09,  2.571862946878491E+09,  9.725634690585202E+08,
2458849.500000000, A.D. 2020-Jan-01 00:00:00.0000,  9.359288623061794E-01,  4.421431992608824E+08,  6.634629828301946E+01,  2.922041089629779E+02,  2.427309849925180E+02, -1.058258836910880E+08,  3.641058686805728E-08,  3.853182531023299E+00,  1.173334763177306E+02,  6.900817047666131E+09,  1.335949089607138E+10,  9.887234207582222E+09,
2458850.500000000, A.D. 2020-Jan-02 00:00:00.0000,  1.359135834779776E+00,  6.901937850898124E+08,  3.776658609787422E+01,  2.921832947623828E+02,  2.736709314369252E+02, -8.838581084057008E+07,  2.477479075411979E-07,  2.189739969208337E+01,  8.642542545371444E+01, -1.921818204282077E+09,  9.999999000000000E+99,  9.999999000000000E+99,
2458851.500000000, A.D. 2020-Jan-03 00:00:00.0000,  2.203596242614107E+00,  9.814794486855041E+08,  1.979009872626867E+01,  2.921265053006914E+02,  2.999585524681580E+02, -6.709291855519513E+07,  8.963505080880935E-07,  6.013877163606222E+01,  6.021511440618064E+01, -8.154557267093288E+08,  9.999999000000000E+99,  9.999999000000000E+99,
2458852.500000000, A.D. 2020-Jan-04 00:00:00.0000,  3.292855621755848E+00,  1.219237514344918E+09,  8.245347930152922E+00,  2.919193047069244E+02,  3.194461641191573E+02, -4.652474340224332E+07,  1.702201767353086E-06,  7.919450044494741E+01,  4.096001771210684E+01, -5.317550319244428E+08,  9.999999000000000E+99,  9.999999000000000E+99,
2458853.500000000, A.D. 2020-Jan-05 00:00:00.0000,  4.322000664185069E+00,  1.386375142279933E+09,  5.732843291200825E-02,  1.995534365719249E+02,  6.773440854476597E+01, -2.835250538009471E+07,  2.448256282362140E-06,  6.941419941752324E+01,  2.506558489883754E+01, -4.173313862416188E+08,  9.999999000000000E+99,  9.999999000000000E+99,
2458854.500000000, A.D. 2020-Jan-06 00:00:00.0000,  4.997811368048525E+00,  1.480556230890368E+09,  6.569692509020083E+00,  1.128703893445592E+02,  1.690885467474590E+02, -1.172498586194864E+07,  2.928697644099478E-06,  3.433893847098866E+01,  1.042395000984960E+01, -3.703416931382334E+08,  9.999999000000000E+99,  9.999999000000000E+99,
2458855.500000000, A.D. 2020-Jan-07 00:00:00.0000,  5.109743241167245E+00,  1.498015683122222E+09,  1.234309163516852E+01,  1.126648424384397E+02,  1.838250402906420E+02,  4.587918435914573E+06,  2.999341690096605E-06, -1.376073503560139E+01,  3.559232175089903E+02, -3.645034726541110E+08,  9.999999000000000E+99,  9.999999000000000E+99,
2458856.500000000, A.D. 2020-Jan-08 00:00:00.0000,  4.592973933831457E+00,  1.431685212718287E+09,  1.793338216123571E+01,  1.126105608622961E+02,  1.991601699369743E+02,  2.189566241305769E+07,  2.624147486265491E-06, -5.745744748134315E+01,  3.406727044031880E+02, -3.984680209443029E+08,  9.999999000000000E+99,  9.999999000000000E+99,
2458857.500000000, A.D. 2020-Jan-09 00:00:00.0000,  3.567659777954737E+00,  1.269124072135670E+09,  2.394789312046334E+01,  1.125936494992888E+02,  2.165443246287809E+02,  4.167932532476034E+07,  1.899452965436178E-06, -7.916791808549522E+01,  3.233352997948149E+02, -4.942726770236623E+08,  9.999999000000000E+99,  9.999999000000000E+99,
2458858.500000000, A.D. 2020-Jan-10 00:00:00.0000,  2.333232404190674E+00,  9.866080478422773E+08,  3.136123958640514E+01,  1.125906932839639E+02,  2.392205478306575E+02,  6.501997365674487E+07,  1.036860332549616E-06, -6.741663150809973E+01,  3.006906646150646E+02, -7.400120524682182E+08,  9.999999000000000E+99,  9.999999000000000E+99,
2458859.500000000, A.D. 2020-Jan-11 00:00:00.0000,  1.331708437320228E+00,  5.559657101558783E+08,  4.272552246108373E+01,  1.125924354678721E+02,  2.758107278372063E+02,  8.634855717331858E+07,  3.041873972227358E-07, -2.626614286049038E+01,  2.641248568689967E+02, -1.676067436352711E+09,  9.999999000000000E+99,  9.999999000000000E+99,
2458860.500000000, A.D. 2020-Jan-12 00:00:00.0000,  9.835404679667191E-01,  1.368063000880233E+08,  7.001256264957345E+01,  1.125894526998654E+02,  3.263543677130197E+02,  8.752201545036235E+07,  2.754517451880236E-08,  3.575891908101825E+02,  2.136014331922677E+02,  8.311676164996918E+09,  1.648654602990581E+10,  1.306943979440986E+10,
2458861.500000000, A.D. 2020-Jan-13 00:00:00.0000,  9.569389878209056E-01,  6.288319072336293E+07,  1.563202010241952E+02,  1.125118891626570E+02,  3.435008440881878E+02,  9.853392861002387E+07,  3.740269929057566E-07,  3.231456509828023E+02,  1.963999710553829E+02,  1.460327742920364E+09,  2.857772295117366E+09,  9.624973780721462E+08,
2458862.500000000, A.D. 2020-Jan-14 00:00:00.0000,  7.781309377672607E-01,  2.194981978036316E+08,  1.596727328020658E+02,  2.927348859371922E+02,  1.620844831851846E+02,  1.465653778263675E+08,  6.707754092597150E-07,  2.616875487052136E+02,  1.980267922114197E+02,  9.893141278678107E+08,  1.759130057931990E+09,  5.366923042055243E+08,
